STARLINK-5923           
1 56489U 23064AT  26068.50105688  .00001029  00000+0  94045-4 0  9999
2 56489  69.9991 104.9595 0002996 276.4731  83.6087 14.98334951156209
CENTAURI-7              
1 62708U 25009DD  26068.76467094  .00005487  00000+0  48082-3 0  9992
2 62708  97.7123 150.3372 0001973 133.1699 226.9688 14.97068612 62583
